CCSDS_OMM_VERS = 2.0
CREATION_DATE  = 
ORIGINATOR     = 

OBJECT_NAME    = ISS (ZARYA)
OBJECT_ID      = 1998-067A
CENTER_NAME    = EARTH
REF_FRAME      = TEME
TIME_SYSTEM    = UTC
MEAN_ELEMENT_THEORY = SGP/SGP4

EPOCH          = 2025-11-25T10:44:58.483104
MEAN_MOTION    = 15.49072731
ECCENTRICITY   = .0003851
INCLINATION    = 51.6313
RA_OF_ASC_NODE = 228.0726
ARG_OF_PERICENTER = 166.4062
MEAN_ANOMALY   = 193.7031

EPHEMERIS_TYPE = 0
CLASSIFICATION_TYPE = U
NORAD_CAT_ID   = 25544
ELEMENT_SET_NO = 999
REV_AT_EPOCH   = 54017
BSTAR          = .25508E-3
MEAN_MOTION_DOT = .13664E-3
MEAN_MOTION_DDOT = 0

CCSDS_OMM_VERS = 2.0
CREATION_DATE  = 
ORIGINATOR     = 

OBJECT_NAME    = CSS (TIANHE)
OBJECT_ID      = 2021-035A
CENTER_NAME    = EARTH
REF_FRAME      = TEME
TIME_SYSTEM    = UTC
MEAN_ELEMENT_THEORY = SGP/SGP4

EPOCH          = 2025-11-25T09:57:01.893600
MEAN_MOTION    = 15.58231669
ECCENTRICITY   = .0010767
INCLINATION    = 41.4665
RA_OF_ASC_NODE = 121.8079
ARG_OF_PERICENTER = 266.9055
MEAN_ANOMALY   = 93.0551

EPHEMERIS_TYPE = 0
CLASSIFICATION_TYPE = U
NORAD_CAT_ID   = 48274
ELEMENT_SET_NO = 999
REV_AT_EPOCH   = 26132
BSTAR          = .29344E-3
MEAN_MOTION_DOT = .2261E-3
MEAN_MOTION_DDOT = 0

CCSDS_OMM_VERS = 2.0
CREATION_DATE  = 
ORIGINATOR     = 

OBJECT_NAME    = ISS (NAUKA)
OBJECT_ID      = 2021-066A
CENTER_NAME    = EARTH
REF_FRAME      = TEME
TIME_SYSTEM    = UTC
MEAN_ELEMENT_THEORY = SGP/SGP4

EPOCH          = 2025-11-24T20:48:53.618400
MEAN_MOTION    = 15.49056620
ECCENTRICITY   = .00038955
INCLINATION    = 51.6314
RA_OF_ASC_NODE = 230.9455
ARG_OF_PERICENTER = 164.8499
MEAN_ANOMALY   = 195.2607

EPHEMERIS_TYPE = 0
CLASSIFICATION_TYPE = U
NORAD_CAT_ID   = 49044
ELEMENT_SET_NO = 999
REV_AT_EPOCH   = 23044
BSTAR          = .27142085E-3
MEAN_MOTION_DOT = .14562E-3
MEAN_MOTION_DDOT = 0

CCSDS_OMM_VERS = 2.0
CREATION_DATE  = 
ORIGINATOR     = 

OBJECT_NAME    = FREGAT DEB
OBJECT_ID      = 2011-037PF
CENTER_NAME    = EARTH
REF_FRAME      = TEME
TIME_SYSTEM    = UTC
MEAN_ELEMENT_THEORY = SGP/SGP4

EPOCH          = 2025-11-25T03:54:38.759040
MEAN_MOTION    = 12.34248240
ECCENTRICITY   = .0872949
INCLINATION    = 51.6165
RA_OF_ASC_NODE = 251.4106
ARG_OF_PERICENTER = 185.8570
MEAN_ANOMALY   = 173.1501

EPHEMERIS_TYPE = 0
CLASSIFICATION_TYPE = U
NORAD_CAT_ID   = 49271
ELEMENT_SET_NO = 999
REV_AT_EPOCH   = 19976
BSTAR          = .2108E-1
MEAN_MOTION_DOT = .9615E-4
MEAN_MOTION_DDOT = 0

CCSDS_OMM_VERS = 2.0
CREATION_DATE  = 
ORIGINATOR     = 

OBJECT_NAME    = CSS (WENTIAN)
OBJECT_ID      = 2022-085A
CENTER_NAME    = EARTH
REF_FRAME      = TEME
TIME_SYSTEM    = UTC
MEAN_ELEMENT_THEORY = SGP/SGP4

EPOCH          = 2025-11-24T13:57:13.070592
MEAN_MOTION    = 15.58193834
ECCENTRICITY   = .00107432
INCLINATION    = 41.4653
RA_OF_ASC_NODE = 126.8581
ARG_OF_PERICENTER = 261.2431
MEAN_ANOMALY   = 98.7190

EPHEMERIS_TYPE = 0
CLASSIFICATION_TYPE = U
NORAD_CAT_ID   = 53239
ELEMENT_SET_NO = 999
REV_AT_EPOCH   = 17384
BSTAR          = .27858096E-3
MEAN_MOTION_DOT = .21413E-3
MEAN_MOTION_DDOT = 0

CCSDS_OMM_VERS = 2.0
CREATION_DATE  = 
ORIGINATOR     = 

OBJECT_NAME    = CSS (MENGTIAN)
OBJECT_ID      = 2022-143A
CENTER_NAME    = EARTH
REF_FRAME      = TEME
TIME_SYSTEM    = UTC
MEAN_ELEMENT_THEORY = SGP/SGP4

EPOCH          = 2025-11-24T13:57:13.070592
MEAN_MOTION    = 15.58193834
ECCENTRICITY   = .00107432
INCLINATION    = 41.4653
RA_OF_ASC_NODE = 126.8581
ARG_OF_PERICENTER = 261.2431
MEAN_ANOMALY   = 98.7190

EPHEMERIS_TYPE = 0
CLASSIFICATION_TYPE = U
NORAD_CAT_ID   = 54216
ELEMENT_SET_NO = 999
REV_AT_EPOCH   = 15864
BSTAR          = .27858096E-3
MEAN_MOTION_DOT = .21413E-3
MEAN_MOTION_DDOT = 0

CCSDS_OMM_VERS = 2.0
CREATION_DATE  = 
ORIGINATOR     = 

OBJECT_NAME    = SOYUZ-MS 27
OBJECT_ID      = 2025-072A
CENTER_NAME    = EARTH
REF_FRAME      = TEME
TIME_SYSTEM    = UTC
MEAN_ELEMENT_THEORY = SGP/SGP4

EPOCH          = 2025-11-24T20:48:53.618400
MEAN_MOTION    = 15.49056620
ECCENTRICITY   = .00038955
INCLINATION    = 51.6314
RA_OF_ASC_NODE = 230.9455
ARG_OF_PERICENTER = 164.8499
MEAN_ANOMALY   = 195.2607

EPHEMERIS_TYPE = 0
CLASSIFICATION_TYPE = U
NORAD_CAT_ID   = 63520
ELEMENT_SET_NO = 999
REV_AT_EPOCH   = 2020
BSTAR          = .27142085E-3
MEAN_MOTION_DOT = .14562E-3
MEAN_MOTION_DDOT = 0

CCSDS_OMM_VERS = 2.0
CREATION_DATE  = 
ORIGINATOR     = 

OBJECT_NAME    = SHENZHOU-20 (SZ-20)
OBJECT_ID      = 2025-082A
CENTER_NAME    = EARTH
REF_FRAME      = TEME
TIME_SYSTEM    = UTC
MEAN_ELEMENT_THEORY = SGP/SGP4

EPOCH          = 2025-11-24T13:57:13.070592
MEAN_MOTION    = 15.58193834
ECCENTRICITY   = .00107432
INCLINATION    = 41.4653
RA_OF_ASC_NODE = 126.8581
ARG_OF_PERICENTER = 261.2431
MEAN_ANOMALY   = 98.7190

EPHEMERIS_TYPE = 0
CLASSIFICATION_TYPE = U
NORAD_CAT_ID   = 63632
ELEMENT_SET_NO = 999
REV_AT_EPOCH   = 25530
BSTAR          = .27858096E-3
MEAN_MOTION_DOT = .21413E-3
MEAN_MOTION_DDOT = 0

CCSDS_OMM_VERS = 2.0
CREATION_DATE  = 
ORIGINATOR     = 

OBJECT_NAME    = PROGRESS-MS 31
OBJECT_ID      = 2025-146A
CENTER_NAME    = EARTH
REF_FRAME      = TEME
TIME_SYSTEM    = UTC
MEAN_ELEMENT_THEORY = SGP/SGP4

EPOCH          = 2025-11-24T20:48:53.618400
MEAN_MOTION    = 15.49056620
ECCENTRICITY   = .00038955
INCLINATION    = 51.6314
RA_OF_ASC_NODE = 230.9455
ARG_OF_PERICENTER = 164.8499
MEAN_ANOMALY   = 195.2607

EPHEMERIS_TYPE = 0
CLASSIFICATION_TYPE = U
NORAD_CAT_ID   = 64751
ELEMENT_SET_NO = 999
REV_AT_EPOCH   = 675
BSTAR          = .27142085E-3
MEAN_MOTION_DOT = .14562E-3
MEAN_MOTION_DDOT = 0

CCSDS_OMM_VERS = 2.0
CREATION_DATE  = 
ORIGINATOR     = 

OBJECT_NAME    = TIANZHOU-9
OBJECT_ID      = 2025-149A
CENTER_NAME    = EARTH
REF_FRAME      = TEME
TIME_SYSTEM    = UTC
MEAN_ELEMENT_THEORY = SGP/SGP4

EPOCH          = 2025-11-24T13:57:13.070592
MEAN_MOTION    = 15.58193834
ECCENTRICITY   = .00107432
INCLINATION    = 41.4653
RA_OF_ASC_NODE = 126.8581
ARG_OF_PERICENTER = 261.2431
MEAN_ANOMALY   = 98.7190

EPHEMERIS_TYPE = 0
CLASSIFICATION_TYPE = U
NORAD_CAT_ID   = 64786
ELEMENT_SET_NO = 999
REV_AT_EPOCH   = 25530
BSTAR          = .27858096E-3
MEAN_MOTION_DOT = .21413E-3
MEAN_MOTION_DDOT = 0

CCSDS_OMM_VERS = 2.0
CREATION_DATE  = 
ORIGINATOR     = 

OBJECT_NAME    = CREW DRAGON 11
OBJECT_ID      = 2025-166A
CENTER_NAME    = EARTH
REF_FRAME      = TEME
TIME_SYSTEM    = UTC
MEAN_ELEMENT_THEORY = SGP/SGP4

EPOCH          = 2025-11-24T20:48:53.618400
MEAN_MOTION    = 15.49056620
ECCENTRICITY   = .00038955
INCLINATION    = 51.6314
RA_OF_ASC_NODE = 230.9455
ARG_OF_PERICENTER = 164.8499
MEAN_ANOMALY   = 195.2607

EPHEMERIS_TYPE = 0
CLASSIFICATION_TYPE = U
NORAD_CAT_ID   = 65077
ELEMENT_SET_NO = 999
REV_AT_EPOCH   = 214
BSTAR          = .27142085E-3
MEAN_MOTION_DOT = .14562E-3
MEAN_MOTION_DDOT = 0

CCSDS_OMM_VERS = 2.0
CREATION_DATE  = 
ORIGINATOR     = 

OBJECT_NAME    = DRAGON CRS-33
OBJECT_ID      = 2025-186A
CENTER_NAME    = EARTH
REF_FRAME      = TEME
TIME_SYSTEM    = UTC
MEAN_ELEMENT_THEORY = SGP/SGP4

EPOCH          = 2025-11-24T20:48:53.618400
MEAN_MOTION    = 15.49056620
ECCENTRICITY   = .00038955
INCLINATION    = 51.6314
RA_OF_ASC_NODE = 230.9455
ARG_OF_PERICENTER = 164.8499
MEAN_ANOMALY   = 195.2607

EPHEMERIS_TYPE = 0
CLASSIFICATION_TYPE = U
NORAD_CAT_ID   = 65304
ELEMENT_SET_NO = 999
REV_AT_EPOCH   = 11
BSTAR          = .27142085E-3
MEAN_MOTION_DOT = .14562E-3
MEAN_MOTION_DDOT = 0

