ISS (ZARYA)             
1 25544U 98067A   25329.44789911  .00013664  00000+0  25508-3 0  9996
2 25544  51.6313 228.0726 0003851 166.4062 193.7031 15.49072731540170
CSS (TIANHE)            
1 48274U 21035A   25329.41460525  .00022610  00000+0  29344-3 0  9999
2 48274  41.4665 121.8079 0010767 266.9055  93.0551 15.58231669261328
ISS (NAUKA)             
1 49044U 21066A   25328.86728725  .00014562  00000+0  27142-3 0  9997
2 49044  51.6314 230.9455 0003895 164.8499 195.2607 15.49056620230448
FREGAT DEB              
1 49271U 11037PF  25329.16294860  .00009615  00000+0  21080-1 0  9994
2 49271  51.6165 251.4106 0872949 185.8570 173.1501 12.34248240199761
CSS (WENTIAN)           
1 53239U 22085A   25328.58140128  .00021413  00000+0  27858-3 0  9991
2 53239  41.4653 126.8581 0010743 261.2431  98.7190 15.58193834173846
CSS (MENGTIAN)          
1 54216U 22143A   25328.58140128  .00021413  00000+0  27858-3 0  9992
2 54216  41.4653 126.8581 0010743 261.2431  98.7190 15.58193834158643
SOYUZ-MS 27             
1 63520U 25072A   25328.86728725  .00014562  00000+0  27142-3 0  9993
2 63520  51.6314 230.9455 0003895 164.8499 195.2607 15.49056620 20204
SHENZHOU-20 (SZ-20)     
1 63632U 25082A   25328.58140128  .00021413  00000+0  27858-3 0  9999
2 63632  41.4653 126.8581 0010743 261.2431  98.7190 15.58193834255306
PROGRESS-MS 31          
1 64751U 25146A   25328.86728725  .00014562  00000+0  27142-3 0  9992
2 64751  51.6314 230.9455 0003895 164.8499 195.2607 15.49056620  6755
TIANZHOU-9              
1 64786U 25149A   25328.58140128  .00021413  00000+0  27858-3 0  9994
2 64786  41.4653 126.8581 0010743 261.2431  98.7190 15.58193834255307
CREW DRAGON 11          
1 65077U 25166A   25328.86728725  .00014562  00000+0  27142-3 0  9996
2 65077  51.6314 230.9455 0003895 164.8499 195.2607 15.49056620  2146
DRAGON CRS-33           
1 65304U 25186A   25328.86728725  .00014562  00000+0  27142-3 0  9991
2 65304  51.6314 230.9455 0003895 164.8499 195.2607 15.49056620   114
